NORAD_CAT_ID,OBJECT_NAME,OBJECT_TYPE,EPOCH,MEAN_MOTION,ECCENTRICITY,INCLINATION,RA_OF_ASC_NODE,ARG_OF_PERICENTER,MEAN_ANOMALY,BSTAR,MEAN_MOTION_DOT,MEAN_MOTION_DDOT,TLE_LINE0,TLE_LINE1,TLE_LINE2,SEMIMAJOR_AXIS,PERIOD,APOGEE,PERIGEE,DECAYED
55406.0,STARLINK-5630,PAYLOAD,2024-05-30 17:29:10,14.98338007,0.0002906,69.9999,258.3359,264.5545,95.5283,7.425e-05,7.93e-06,0.0,0 STARLINK-5630,1 55406U 23014R   24151.72859592  .00000793  00000-0  74250-4 0  9991,2 55406  69.9999 258.3359 0002906 264.5545  95.5283 14.98338007 74990,6950.168,96.106,574.053,570.013,0.0
55406.0,STARLINK-5630,PAYLOAD,2024-05-31 11:06:39,14.98329836,0.0002898,69.9999,256.4839,265.6096,94.4732,5.9415e-05,6.16e-06,0.0,0 STARLINK-5630,1 55406U 23014R   24152.46296025  .00000616  00000-0  59415-4 0  9999,2 55406  69.9999 256.4839 0002898 265.6096  94.4732 14.98329836 74161,6950.193,96.107,574.073,570.044,0.0
55406.0,STARLINK-5630,PAYLOAD,2024-05-31 14:18:55,14.98331131,0.0002885,69.9999,256.1473,265.4835,94.5994,7.2402e-05,7.71e-06,0.0,0 STARLINK-5630,1 55406U 23014R   24152.59647920  .00000771  00000-0  72402-4 0  9990,2 55406  69.9999 256.1473 0002885 265.4835  94.5994 14.98331131 75126,6950.189,96.107,574.06,570.049,0.0
55406.0,STARLINK-5630,PAYLOAD,2024-05-31 15:55:03,14.98331922,0.0002874,70.0,255.979,265.2151,94.868,8.0297e-05,8.65e-06,0.0,0 STARLINK-5630,1 55406U 23014R   24152.66323843  .00000865  00000-0  80297-4 0  9998,2 55406  70.0000 255.9790 0002874 265.2151  94.8680 14.98331922 75132,6950.187,96.107,574.049,570.054,0.0
55406.0,STARLINK-5630,PAYLOAD,2024-06-01 12:44:49,14.98326459,0.0002896,69.9998,253.7903,269.5415,90.5412,-7.2622e-05,-9.59e-06,0.0,0 STARLINK-5630,1 55406U 23014R   24153.53112605 -.00000959  00000-0 -72622-4 0  9996,2 55406  69.9998 253.7903 0002896 269.5415  90.5412 14.98326459 74326,6950.204,96.107,574.082,570.056,0.0
55406.0,STARLINK-5630,PAYLOAD,2024-06-01 14:20:57,14.98325195,0.0002914,69.9998,253.6221,268.5709,91.5116,-8.6818e-05,-1.129e-05,0.0,0 STARLINK-5630,1 55406U 23014R   24153.59788727 -.00001129  00000-0 -86818-4 0  9998,2 55406  69.9998 253.6221 0002914 268.5709  91.5116 14.98325195 75277,6950.208,96.107,574.098,570.047,0.0
55406.0,STARLINK-5630,PAYLOAD,2024-06-02 12:46:49,14.98331152,0.0003114,69.9994,251.2656,270.8964,89.1838,4.2156e-05,4.1e-06,0.0,0 STARLINK-5630,1 55406U 23014R   24154.53252132  .00000410  00000-0  42156-4 0  9996,2 55406  69.9994 251.2656 0003114 270.8964  89.1838 14.98331152 74476,6950.189,96.107,574.219,569.89,0.0
55406.0,STARLINK-5630,PAYLOAD,2024-06-03 12:48:50,14.98333053,0.0003326,69.9988,248.7392,269.4249,90.6529,0.00014258,1.609e-05,0.0,0 STARLINK-5630,1 55406U 23014R   24155.53391839  .00001609  00000-0  14258-3 0  9997,2 55406  69.9988 248.7392 0003326 269.4249  90.6529 14.98333053 74625,6950.183,96.107,574.36,569.737,0.0
55406.0,STARLINK-5630,PAYLOAD,2024-06-04 12:50:50,14.9834016,0.0003402,69.9988,246.2151,269.7518,90.3251,0.00012342,1.38e-05,0.0,0 STARLINK-5630,1 55406U 23014R   24156.53531239  .00001380  00000-0  12342-3 0  9996,2 55406  69.9988 246.2151 0003402 269.7518  90.3251 14.98340160 74770,6950.161,96.106,574.391,569.662,0.0
55406.0,STARLINK-5630,PAYLOAD,2024-06-05 04:52:12,14.98335216,0.0003334,69.9988,244.5313,270.9557,89.122,3.3922e-06,-5.3e-07,0.0,0 STARLINK-5630,1 55406U 23014R   24157.20291683 -.00000053  00000-0  33922-5 0  9993,2 55406  69.9988 244.5313 0003334 270.9557  89.1220 14.98335216 74871,6950.177,96.107,574.359,569.725,0.0
55406.0,STARLINK-5630,PAYLOAD,2024-06-05 12:52:52,14.9833283,0.0003306,69.9988,243.6898,271.1014,88.9766,-2.2799e-05,-3.65e-06,0.0,0 STARLINK-5630,1 55406U 23014R   24157.53671825 -.00000365  00000-0 -22799-4 0  9995,2 55406  69.9988 243.6898 0003306 271.1014  88.9766 14.98332830 75860,6950.184,96.107,574.347,569.751,0.0
55406.0,STARLINK-5630,PAYLOAD,2024-06-05 22:29:40,14.98335442,0.0003517,69.9984,242.679,272.8802,87.1955,-1.5616e-05,-2.79e-06,0.0,0 STARLINK-5630,1 55406U 23014R   24157.93727508 -.00000279  00000-0 -15616-4 0  9993,2 55406  69.9984 242.6790 0003517 272.8802  87.1955 14.98335442 75923,6950.176,96.107,574.485,569.597,0.0
55406.0,STARLINK-5630,PAYLOAD,2024-06-06 11:18:45,14.98327599,0.0003183,69.9992,241.3328,273.2443,86.8352,-2.5884e-05,-4.02e-06,0.0,0 STARLINK-5630,1 55406U 23014R   24158.47136117 -.00000402  00000-0 -25884-4 0  9999,2 55406  69.9992 241.3328 0003183 273.2443  86.8352 14.98327599 75066,6950.2,96.107,574.278,569.853,0.0
55406.0,STARLINK-5630,PAYLOAD,2024-06-07 09:44:38,14.98326403,0.0003023,69.9997,238.9781,266.0059,94.0755,8.9413e-05,9.74e-06,0.0,0 STARLINK-5630,1 55406U 23014R   24159.40599894  .00000974  00000-0  89413-4 0  9998,2 55406  69.9997 238.9781 0003023 266.0059  94.0755 14.98326403 76143,6950.204,96.107,574.17,569.968,0.0
55406.0,STARLINK-5630,PAYLOAD,2024-06-07 22:33:42,14.98334561,0.0003245,69.9989,237.6298,270.015,90.0638,0.0001248,1.397e-05,0.0,0 STARLINK-5630,1 55406U 23014R   24159.94007220  .00001397  00000-0  12480-3 0  9993,2 55406  69.9989 237.6298 0003245 270.0150  90.0638 14.98334561 76225,6950.179,96.107,574.299,569.788,0.0
55406.0,STARLINK-5630,PAYLOAD,2024-06-08 14:35:02,14.98341156,0.0003179,69.999,235.9472,268.3906,91.6889,0.0001711,1.95e-05,0.0,0 STARLINK-5630,1 55406U 23014R   24160.60766534  .00001950  00000-0  17110-3 0  9998,2 55406  69.9990 235.9472 0003179 268.3906  91.6889 14.98341156 76321,6950.158,96.106,574.233,569.814,0.0
55406.0,STARLINK-5630,PAYLOAD,2024-06-09 05:00:15,14.98329382,0.0002813,69.9994,234.4313,263.7312,96.3527,1.3426e-05,6.7e-07,0.0,0 STARLINK-5630,1 55406U 23014R   24161.20851673  .00000067  00000-0  13426-4 0  9999,2 55406  69.9994 234.4313 0002813 263.7312  96.3527 14.98329382 75470,6950.195,96.107,574.015,570.105,0.0
55406.0,STARLINK-5630,PAYLOAD,2024-06-09 11:24:48,14.98321998,0.000301,69.9995,233.7593,263.2016,96.8801,-6.6867e-05,-8.91e-06,0.0,0 STARLINK-5630,1 55406U 23014R   24161.47556355 -.00000891  00000-0 -66867-4 0  9991,2 55406  69.9995 233.7593 0003010 263.2016  96.8801 14.98321998 75519,6950.218,96.108,574.175,569.991,0.0
55406.0,STARLINK-5630,PAYLOAD,2024-06-09 22:37:44,14.98326814,0.00034,69.9987,232.5808,273.3343,86.7427,-6.0491e-05,-8.15e-06,0.0,0 STARLINK-5630,1 55406U 23014R   24161.94288176 -.00000815  00000-0 -60491-4 0  9999,2 55406  69.9987 232.5808 0003400 273.3343  86.7427 14.98326814 76520,6950.203,96.107,574.431,569.705,0.0
55406.0,STARLINK-5630,PAYLOAD,2024-06-10 13:02:56,14.9833957,0.0003421,69.9986,231.065,271.9896,88.0871,2.4501e-05,1.99e-06,0.0,0 STARLINK-5630,1 55406U 23014R   24162.54371126  .00000199  00000-0  24501-4 0  9999,2 55406  69.9986 231.0650 0003421 271.9896  88.0871 14.98339570 75674,6950.163,96.106,574.406,569.651,0.0
55406.0,STARLINK-5630,PAYLOAD,2024-06-10 14:39:04,14.98340708,0.0003395,69.9987,230.8966,271.8685,88.2086,4.1591e-05,4.03e-06,0.0,0 STARLINK-5630,1 55406U 23014R   24162.61046992  .00000403  00000-0  41591-4 0  9993,2 55406  69.9987 230.8966 0003395 271.8685  88.2086 14.98340708 76628,6950.16,96.106,574.384,569.665,0.0
55406.0,STARLINK-5630,PAYLOAD,2024-06-11 05:04:17,14.98323384,0.0003341,69.9991,229.3817,275.037,85.0407,0.00015938,1.809e-05,0.0,0 STARLINK-5630,1 55406U 23014R   24163.21131832  .00001809  00000-0  15938-3 0  9994,2 55406  69.9991 229.3817 0003341 275.0370  85.0407 14.98323384 75777,6950.213,96.107,574.4,569.756,0.0
55406.0,STARLINK-5630,PAYLOAD,2024-06-11 13:04:57,14.98329435,0.0003306,69.9992,228.54,275.105,84.9732,0.00022341,2.574e-05,0.0,0 STARLINK-5630,1 55406U 23014R   24163.54511506  .00002574  00000-0  22341-3 0  9996,2 55406  69.9992 228.5400 0003306 275.1050  84.9732 14.98329435 76766,6950.195,96.107,574.357,569.762,0.0
55406.0,STARLINK-5630,PAYLOAD,2024-06-12 05:06:18,14.98332154,0.0003178,69.9996,226.8571,275.1526,84.927,9.3896e-06,1.9e-07,0.0,0 STARLINK-5630,1 55406U 23014R   24164.21271875  .00000019  00000-0  93896-5 0  9990,2 55406  69.9996 226.8571 0003178 275.1526  84.9270 14.98332154 75921,6950.186,96.107,574.26,569.842,0.0
55406.0,STARLINK-5630,PAYLOAD,2024-06-12 06:42:27,14.98331416,0.0003189,69.9995,226.6888,275.0527,85.0268,-6.5842e-07,-1.01e-06,0.0,0 STARLINK-5630,1 55406U 23014R   24164.27947919 -.00000101  00000-0 -65842-6 0  9990,2 55406  69.9995 226.6888 0003189 275.0527  85.0268 14.98331416 76875,6950.189,96.107,574.27,569.837,0.0
55406.0,STARLINK-5630,PAYLOAD,2024-06-12 13:06:59,14.98330178,0.0003149,69.9996,226.016,273.505,86.5749,-8.5115e-06,-1.95e-06,0.0,0 STARLINK-5630,1 55406U 23014R   24164.54651923 -.00000195  00000-0 -85115-5 0  9994,2 55406  69.9996 226.0160 0003149 273.5050  86.5749 14.98330178 76912,6950.192,96.107,574.246,569.869,0.0
55406.0,STARLINK-5630,PAYLOAD,2024-06-13 05:08:19,14.98333914,0.0003182,69.9994,224.3329,270.1275,89.9519,4.3533e-05,4.26e-06,0.0,0 STARLINK-5630,1 55406U 23014R   24165.21411456  .00000426  00000-0  43533-4 0  9996,2 55406  69.9994 224.3329 0003182 270.1275  89.9519 14.98333914 76077,6950.181,96.107,574.257,569.834,0.0
55406.0,STARLINK-5630,PAYLOAD,2024-06-13 13:08:59,14.98332298,0.0003215,69.9994,223.4914,269.2775,90.8015,1.8046e-05,1.22e-06,0.0,0 STARLINK-5630,1 55406U 23014R   24165.54791519  .00000122  00000-0  18046-4 0  9997,2 55406  69.9994 223.4914 0003215 269.2775  90.8015 14.98332298 77064,6950.186,96.107,574.285,569.816,0.0
55406.0,STARLINK-5630,PAYLOAD,2024-06-14 13:11:00,14.98335839,0.0003355,69.999,220.9663,270.3064,89.7711,0.00011193,1.243e-05,0.0,0 STARLINK-5630,1 55406U 23014R   24166.54930883  .00001243  00000-0  11193-3 0  9997,2 55406  69.9990 220.9663 0003355 270.3064  89.7711 14.98335839 77213,6950.175,96.107,574.372,569.708,0.0
55406.0,STARLINK-5630,PAYLOAD,2024-06-15 13:13:01,14.98330576,0.0003231,69.9991,218.4406,267.0797,92.9992,8.6626e-06,1e-07,0.0,0 STARLINK-5630,1 55406U 23014R   24167.55071356  .00000010  00000-0  86626-5 0  9996,2 55406  69.9991 218.4406 0003231 267.0797  92.9992 14.98330576 77366,6950.191,96.107,574.302,569.811,0.0
